CZ-2C R/B               
1 54039U 22132E   26012.92775612  .00025363  00000+0  34895-3 0  9991
2 54039  97.2949  14.7737 0017171 302.1065  57.8523 15.57082466181684
GSLV R/B                
1 54149U 22138AN  26012.95495925  .00002461  00000+0  21423-3 0  9995
2 54149  87.3830 185.0181 0021675   0.5726 359.5526 14.96326435175594
XRISM                   
1 57800U 23137A   26013.15588006  .00003806  00000+0  21815-3 0  9997
2 57800  31.0024 282.6532 0007938 204.2145 155.8121 15.10753369129381
ACS3                    
1 59588U 24077B   26013.15007685  .00008176  00000+0  68935-2 0  9993
2 59588  97.2421 326.7364 0060492 258.5025 100.9340 13.87095067 86491
SZ-21 MODULE            
1 66515U 25246C   26013.15957274  .00023002  00000+0  23567-3 0  9996
2 66515  41.4740 184.1107 0001746 156.7116 203.3803 15.64420875  9361
